{
  "links" : {
    "next" : "https://api.nasa.gov/neo/rest/v1/feed?start_date=2005-11-16&end_date=2005-11-16&detailed=true&api_key=t0TVs3DtDT2H8Oy2Zy8m2eVrNsAVKAexjcZXUckd",
    "prev" : "https://api.nasa.gov/neo/rest/v1/feed?start_date=2005-11-14&end_date=2005-11-14&detailed=true&api_key=t0TVs3DtDT2H8Oy2Zy8m2eVrNsAVKAexjcZXUckd",
    "self" : "https://api.nasa.gov/neo/rest/v1/feed?start_date=2005-11-15&end_date=2005-11-15&detailed=true&api_key=t0TVs3DtDT2H8Oy2Zy8m2eVrNsAVKAexjcZXUckd"
  },
  "element_count" : 10,
  "near_earth_objects" : {
    "2005-11-15" : [ {
      "links" : {
        "self" : "https://api.nasa.gov/neo/rest/v1/neo/3297366?api_key=t0TVs3DtDT2H8Oy2Zy8m2eVrNsAVKAexjcZXUckd"
      },
      "neo_reference_id" : "3297366",
      "name" : "(2005 UJ6)",
      "nasa_jpl_url" : "http://ssd.jpl.nasa.gov/sbdb.cgi?sstr=3297366",
      "absolute_magnitude_h" : 21.5,
      "estimated_diameter" : {
        "kilometers" : {
          "estimated_diameter_min" : 0.1332155667,
          "estimated_diameter_max" : 0.2978790628
        },
        "meters" : {
          "estimated_diameter_min" : 133.2155666981,
          "estimated_diameter_max" : 297.8790627982
        },
        "miles" : {
          "estimated_diameter_min" : 0.0827762899,
          "estimated_diameter_max" : 0.1850934111
        },
        "feet" : {
          "estimated_diameter_min" : 437.0589598459,
          "estimated_diameter_max" : 977.2935443908
        }
      },
      "is_potentially_hazardous_asteroid" : false,
      "close_approach_data" : [ {
        "close_approach_date" : "2005-11-15",
        "epoch_date_close_approach" : 1132041600000,
        "relative_velocity" : {
          "kilometers_per_second" : "12.0329687051",
          "kilometers_per_hour" : "43318.6873384169",
          "miles_per_hour" : "26916.5476964735"
        },
        "miss_distance" : {
          "astronomical" : "0.2609682826",
          "lunar" : "101.5166549683",
          "kilometers" : "39040296",
          "miles" : "24258516"
        },
        "orbiting_body" : "Earth"
      } ],
      "orbital_data" : {
        "orbit_id" : "16",
        "orbit_determination_date" : "2016-11-24 06:19:05",
        "orbit_uncertainty" : "0",
        "minimum_orbit_intersection" : ".124977",
        "jupiter_tisserand_invariant" : "5.649",
        "epoch_osculation" : "2457800.5",
        "eccentricity" : ".4161895858694952",
        "semi_major_axis" : "1.068545204432379",
        "inclination" : "18.99724711559362",
        "ascending_node_longitude" : "42.39806430815829",
        "orbital_period" : "403.4481944568063",
        "perihelion_distance" : ".6238278183168318",
        "perihelion_argument" : "131.3721612635243",
        "aphelion_distance" : "1.513262590547926",
        "perihelion_time" : "2457818.803681489573",
        "mean_anomaly" : "343.6674809138306",
        "mean_motion" : ".8923078723519782",
        "equinox" : "J2000"
      }
    }, {
      "links" : {
        "self" : "https://api.nasa.gov/neo/rest/v1/neo/3390109?api_key=t0TVs3DtDT2H8Oy2Zy8m2eVrNsAVKAexjcZXUckd"
      },
      "neo_reference_id" : "3390109",
      "name" : "(2007 UN12)",
      "nasa_jpl_url" : "http://ssd.jpl.nasa.gov/sbdb.cgi?sstr=3390109",
      "absolute_magnitude_h" : 28.7,
      "estimated_diameter" : {
        "kilometers" : {
          "estimated_diameter_min" : 0.0048367649,
          "estimated_diameter_max" : 0.0108153351
        },
        "meters" : {
          "estimated_diameter_min" : 4.8367648822,
          "estimated_diameter_max" : 10.8153350678
        },
        "miles" : {
          "estimated_diameter_min" : 0.0030054254,
          "estimated_diameter_max" : 0.0067203356
        },
        "feet" : {
          "estimated_diameter_min" : 15.8686516961,
          "estimated_diameter_max" : 35.4833839037
        }
      },
      "is_potentially_hazardous_asteroid" : false,
      "close_approach_data" : [ {
        "close_approach_date" : "2005-11-15",
        "epoch_date_close_approach" : 1132041600000,
        "relative_velocity" : {
          "kilometers_per_second" : "6.7738079624",
          "kilometers_per_hour" : "24385.708664634",
          "miles_per_hour" : "15152.3310310888"
        },
        "miss_distance" : {
          "astronomical" : "0.214520349",
          "lunar" : "83.4484176636",
          "kilometers" : "32091788",
          "miles" : "19940912"
        },
        "orbiting_body" : "Earth"
      } ],
      "orbital_data" : {
        "orbit_id" : "20",
        "orbit_determination_date" : "2017-04-06 09:05:30",
        "orbit_uncertainty" : "5",
        "minimum_orbit_intersection" : ".00112943",
        "jupiter_tisserand_invariant" : "5.836",
        "epoch_osculation" : "2458000.5",
        "eccentricity" : ".06050933943265564",
        "semi_major_axis" : "1.053832173702906",
        "inclination" : ".2355822174622624",
        "ascending_node_longitude" : "216.0088287325035",
        "orbital_period" : "395.1441959104719",
        "perihelion_distance" : ".9900654849992632",
        "perihelion_argument" : "134.4801866295666",
        "aphelion_distance" : "1.117598862406548",
        "perihelion_time" : "2457914.655324761195",
        "mean_anomaly" : "78.20963437097235",
        "mean_motion" : ".9110598199993944",
        "equinox" : "J2000"
      }
    }, {
      "links" : {
        "self" : "https://api.nasa.gov/neo/rest/v1/neo/3672899?api_key=t0TVs3DtDT2H8Oy2Zy8m2eVrNsAVKAexjcZXUckd"
      },
      "neo_reference_id" : "3672899",
      "name" : "(2014 KQ76)",
      "nasa_jpl_url" : "http://ssd.jpl.nasa.gov/sbdb.cgi?sstr=3672899",
      "absolute_magnitude_h" : 21.6,
      "estimated_diameter" : {
        "kilometers" : {
          "estimated_diameter_min" : 0.1272198785,
          "estimated_diameter_max" : 0.2844722965
        },
        "meters" : {
          "estimated_diameter_min" : 127.2198785394,
          "estimated_diameter_max" : 284.4722965033
        },
        "miles" : {
          "estimated_diameter_min" : 0.0790507431,
          "estimated_diameter_max" : 0.1767628354
        },
        "feet" : {
          "estimated_diameter_min" : 417.3880663071,
          "estimated_diameter_max" : 933.3080892598
        }
      },
      "is_potentially_hazardous_asteroid" : true,
      "close_approach_data" : [ {
        "close_approach_date" : "2005-11-15",
        "epoch_date_close_approach" : 1132041600000,
        "relative_velocity" : {
          "kilometers_per_second" : "13.4175920103",
          "kilometers_per_hour" : "48303.3312369716",
          "miles_per_hour" : "30013.8115677727"
        },
        "miss_distance" : {
          "astronomical" : "0.3678818198",
          "lunar" : "143.1060333252",
          "kilometers" : "55034340",
          "miles" : "34196752"
        },
        "orbiting_body" : "Earth"
      } ],
      "orbital_data" : {
        "orbit_id" : "24",
        "orbit_determination_date" : "2016-06-08 06:17:52",
        "orbit_uncertainty" : "2",
        "minimum_orbit_intersection" : ".0409175",
        "jupiter_tisserand_invariant" : "5.959",
        "epoch_osculation" : "2457600.5",
        "eccentricity" : ".4233135009763423",
        "semi_major_axis" : "1.00746639767388",
        "inclination" : "4.773717282978413",
        "ascending_node_longitude" : "128.0520480970782",
        "orbital_period" : "369.3552544889754",
        "perihelion_distance" : ".5809922697585259",
        "perihelion_argument" : "324.7548504927909",
        "aphelion_distance" : "1.433940525589234",
        "perihelion_time" : "2457777.420801445288",
        "mean_anomaly" : "187.5603561984664",
        "mean_motion" : ".9746713919044717",
        "equinox" : "J2000"
      }
    } ]
  }
}